[{"OBJECT_NAME":"STARLINK-4572","OBJECT_ID":"2022-105AW","EPOCH":"2026-03-09T16:09:10.695744","MEAN_MOTION":15.21020685,"ECCENTRICITY":0.00018422,"INCLINATION":97.6182,"RA_OF_ASC_NODE":315.6347,"ARG_OF_PERICENTER":18.3505,"MEAN_ANOMALY":341.7796,"EPHEMERIS_TYPE":0,"CLASSIFICATION_TYPE":"U","NORAD_CAT_ID":53692,"ELEMENT_SET_NO":999,"REV_AT_EPOCH":19355,"BSTAR":0.00056421038,"MEAN_MOTION_DOT":0.00012459,"MEAN_MOTION_DDOT":0},{"OBJECT_NAME":"LEO EXPRESS 2","OBJECT_ID":"2025-009BS","EPOCH":"2026-03-09T18:02:20.136480","MEAN_MOTION":15.18978124,"ECCENTRICITY":0.00254218,"INCLINATION":96.6294,"RA_OF_ASC_NODE":150.033,"ARG_OF_PERICENTER":119.8002,"MEAN_ANOMALY":240.5767,"EPHEMERIS_TYPE":0,"CLASSIFICATION_TYPE":"U","NORAD_CAT_ID":62673,"ELEMENT_SET_NO":999,"REV_AT_EPOCH":12143,"BSTAR":0.00029070502,"MEAN_MOTION_DOT":6.074e-5,"MEAN_MOTION_DDOT":0}]
